{
 "type": "FeatureCollection",
 "features": [
  {
   "type": "Feature",
   "geometry": {
    "type": "Point",
    "coordinates": [
     7.15031,
     44.20287
    ]
   },
   "properties": {
    "rango": 1,
    "oscuramento_pct": 94.9,
    "ora_massimo": "20:23",
    "orizzonte_deg": 1.96,
    "quota_m": 2346,
    "dist_strada_m": 0
   }
  },
  {
   "type": "Feature",
   "geometry": {
    "type": "Point",
    "coordinates": [
     7.67177,
     44.15897
    ]
   },
   "properties": {
    "rango": 2,
    "oscuramento_pct": 94.8,
    "ora_massimo": "20:23",
    "orizzonte_deg": 1.5,
    "quota_m": 2108,
    "dist_strada_m": 0
   }
  },
  {
   "type": "Feature",
   "geometry": {
    "type": "Point",
    "coordinates": [
     7.48086,
     44.26776
    ]
   },
   "properties": {
    "rango": 3,
    "oscuramento_pct": 94.7,
    "ora_massimo": "20:23",
    "orizzonte_deg": 2.09,
    "quota_m": 1404,
    "dist_strada_m": 0
   }
  },
  {
   "type": "Feature",
   "geometry": {
    "type": "Point",
    "coordinates": [
     7.78075,
     44.23446
    ]
   },
   "properties": {
    "rango": 4,
    "oscuramento_pct": 94.7,
    "ora_massimo": "20:23",
    "orizzonte_deg": 0.61,
    "quota_m": 1878,
    "dist_strada_m": 0
   }
  },
  {
   "type": "Feature",
   "geometry": {
    "type": "Point",
    "coordinates": [
     8.06674,
     44.18499
    ]
   },
   "properties": {
    "rango": 5,
    "oscuramento_pct": 94.7,
    "ora_massimo": "20:23",
    "orizzonte_deg": 1.82,
    "quota_m": 1137,
    "dist_strada_m": 180
   }
  },
  {
   "type": "Feature",
   "geometry": {
    "type": "Point",
    "coordinates": [
     7.10175,
     44.37912
    ]
   },
   "properties": {
    "rango": 6,
    "oscuramento_pct": 94.7,
    "ora_massimo": "20:23",
    "orizzonte_deg": 1.65,
    "quota_m": 2463,
    "dist_strada_m": 0
   }
  },
  {
   "type": "Feature",
   "geometry": {
    "type": "Point",
    "coordinates": [
     7.63628,
     44.29739
    ]
   },
   "properties": {
    "rango": 7,
    "oscuramento_pct": 94.7,
    "ora_massimo": "20:23",
    "orizzonte_deg": 2.07,
    "quota_m": 1014,
    "dist_strada_m": 0
   }
  },
  {
   "type": "Feature",
   "geometry": {
    "type": "Point",
    "coordinates": [
     8.19981,
     44.23575
    ]
   },
   "properties": {
    "rango": 8,
    "oscuramento_pct": 94.7,
    "ora_massimo": "20:22",
    "orizzonte_deg": 1.12,
    "quota_m": 1152,
    "dist_strada_m": 0
   }
  },
  {
   "type": "Feature",
   "geometry": {
    "type": "Point",
    "coordinates": [
     7.92271,
     44.27745
    ]
   },
   "properties": {
    "rango": 9,
    "oscuramento_pct": 94.6,
    "ora_massimo": "20:22",
    "orizzonte_deg": 1.43,
    "quota_m": 968,
    "dist_strada_m": 0
   }
  },
  {
   "type": "Feature",
   "geometry": {
    "type": "Point",
    "coordinates": [
     7.7873,
     44.343
    ]
   },
   "properties": {
    "rango": 10,
    "oscuramento_pct": 94.6,
    "ora_massimo": "20:22",
    "orizzonte_deg": 1.94,
    "quota_m": 495,
    "dist_strada_m": 0
   }
  },
  {
   "type": "Feature",
   "geometry": {
    "type": "Point",
    "coordinates": [
     8.07835,
     44.30323
    ]
   },
   "properties": {
    "rango": 11,
    "oscuramento_pct": 94.6,
    "ora_massimo": "20:22",
    "orizzonte_deg": 1.85,
    "quota_m": 682,
    "dist_strada_m": 180
   }
  },
  {
   "type": "Feature",
   "geometry": {
    "type": "Point",
    "coordinates": [
     7.12664,
     44.54614
    ]
   },
   "properties": {
    "rango": 12,
    "oscuramento_pct": 94.6,
    "ora_massimo": "20:22",
    "orizzonte_deg": 2.61,
    "quota_m": 2361,
    "dist_strada_m": 180
   }
  },
  {
   "type": "Feature",
   "geometry": {
    "type": "Point",
    "coordinates": [
     7.95889,
     44.38354
    ]
   },
   "properties": {
    "rango": 13,
    "oscuramento_pct": 94.5,
    "ora_massimo": "20:22",
    "orizzonte_deg": 1.56,
    "quota_m": 505,
    "dist_strada_m": 0
   }
  },
  {
   "type": "Feature",
   "geometry": {
    "type": "Point",
    "coordinates": [
     7.73397,
     44.4458
    ]
   },
   "properties": {
    "rango": 14,
    "oscuramento_pct": 94.5,
    "ora_massimo": "20:22",
    "orizzonte_deg": 2.2,
    "quota_m": 412,
    "dist_strada_m": 0
   }
  },
  {
   "type": "Feature",
   "geometry": {
    "type": "Point",
    "coordinates": [
     8.29725,
     44.31806
    ]
   },
   "properties": {
    "rango": 15,
    "oscuramento_pct": 94.5,
    "ora_massimo": "20:22",
    "orizzonte_deg": 1.58,
    "quota_m": 594,
    "dist_strada_m": 180
   }
  },
  {
   "type": "Feature",
   "geometry": {
    "type": "Point",
    "coordinates": [
     8.48013,
     44.33023
    ]
   },
   "properties": {
    "rango": 16,
    "oscuramento_pct": 94.5,
    "ora_massimo": "20:22",
    "orizzonte_deg": 1.69,
    "quota_m": 198,
    "dist_strada_m": 0
   }
  },
  {
   "type": "Feature",
   "geometry": {
    "type": "Point",
    "coordinates": [
     8.1058,
     44.4101
    ]
   },
   "properties": {
    "rango": 17,
    "oscuramento_pct": 94.5,
    "ora_massimo": "20:22",
    "orizzonte_deg": 1.53,
    "quota_m": 752,
    "dist_strada_m": 0
   }
  },
  {
   "type": "Feature",
   "geometry": {
    "type": "Point",
    "coordinates": [
     7.8945,
     44.4848
    ]
   },
   "properties": {
    "rango": 18,
    "oscuramento_pct": 94.5,
    "ora_massimo": "20:22",
    "orizzonte_deg": 2.05,
    "quota_m": 336,
    "dist_strada_m": 0
   }
  },
  {
   "type": "Feature",
   "geometry": {
    "type": "Point",
    "coordinates": [
     8.37927,
     44.41494
    ]
   },
   "properties": {
    "rango": 19,
    "oscuramento_pct": 94.4,
    "ora_massimo": "20:22",
    "orizzonte_deg": 1.17,
    "quota_m": 677,
    "dist_strada_m": 0
   }
  },
  {
   "type": "Feature",
   "geometry": {
    "type": "Point",
    "coordinates": [
     8.04277,
     44.51062
    ]
   },
   "properties": {
    "rango": 20,
    "oscuramento_pct": 94.4,
    "ora_massimo": "20:22",
    "orizzonte_deg": 1.14,
    "quota_m": 766,
    "dist_strada_m": 0
   }
  }
 ]
}